ATLAS CENTAUR R/B       
1 06155U 72065B   26075.85553100  .00001169  00000+0  16252-3 0  9999
2 06155  35.0008 263.7585 0032928  69.8720 290.5519 14.77707485842327
SL-8 R/B                
1 08459U 75112B   26075.87635639  .00000216  00000+0  79739-4 0  9996
2 08459  74.0636   5.6928 0014454  95.9361 264.3441 14.38208061632902
SL-3 R/B                
1 10114U 77057B   26075.84057575  .00011905  00000+0  24824-3 0  9992
2 10114  97.5774 248.0780 0006149 254.0805 105.9766 15.45707685669431
SEASAT 1                
1 10967U 78064A   26075.82835498  .00000208  00000+0  96690-4 0  9998
2 10967 108.0095 140.4792 0002413 282.9391  77.1485 14.46166149507544
SL-14 R/B               
1 11267U 79011B   26075.75694184  .00000598  00000+0  56438-4 0  9990
2 11267  82.5203  89.8625 0016994  38.6066 321.6365 14.91917112529834
SL-8 R/B                
1 11574U 79089B   26075.75079420  .00000298  00000+0  98164-4 0  9995
2 11574  74.0669  77.9710 0017066 249.9068 110.0252 14.42355741437125
SL-14 R/B               
1 11672U 80005B   26075.57327710  .00000501  00000+0  48052-4 0  9990
2 11672  82.5133 300.7062 0016727 136.4495 223.8048 14.90938297477517
SL-8 R/B                
1 12139U 81003B   26075.82141951  .00020508  00000+0  52190-3 0  9993
2 12139  82.9370 283.4289 0261491 153.7912 207.6836 15.11284694315758
SL-3 R/B                
1 12465U 81046B   26075.79230867  .00010382  00000+0  23984-3 0  9991
2 12465  81.2286 281.2139 0018980 357.6592   2.4559 15.42182295439523
SL-3 R/B                
1 12904U 81103B   26075.80950228  .00004759  00000+0  21023-3 0  9998
2 12904  81.1597 205.0802 0012453 261.1253  98.8569 15.21468619974313
SL-3 R/B                
1 13068U 82013B   26075.81464666  .00004165  00000+0  17956-3 0  9999
2 13068  81.1761 152.4208 0023040 153.7158 206.5249 15.22089215405434
SL-3 R/B                
1 13154U 82039B   26075.81297995  .00002366  00000+0  14231-3 0  9996
2 13154  81.1578 207.7492 0029408 301.1422  58.6919 15.10124124382713
