CCSDS_OMM_VERS = 2.0
CREATION_DATE  = 
ORIGINATOR     = 

OBJECT_NAME    = ATLAS CENTAUR R/B
OBJECT_ID      = 1972-065B
CENTER_NAME    = EARTH
REF_FRAME      = TEME
TIME_SYSTEM    = UTC
MEAN_ELEMENT_THEORY = SGP/SGP4

EPOCH          = 2026-03-16T20:31:57.878400
MEAN_MOTION    = 14.77707485
ECCENTRICITY   = .0032928
INCLINATION    = 35.0008
RA_OF_ASC_NODE = 263.7585
ARG_OF_PERICENTER = 69.8720
MEAN_ANOMALY   = 290.5519

EPHEMERIS_TYPE = 0
CLASSIFICATION_TYPE = U
NORAD_CAT_ID   = 6155
ELEMENT_SET_NO = 999
REV_AT_EPOCH   = 84232
BSTAR          = .16252E-3
MEAN_MOTION_DOT = .1169E-4
MEAN_MOTION_DDOT = 0

CCSDS_OMM_VERS = 2.0
CREATION_DATE  = 
ORIGINATOR     = 

OBJECT_NAME    = SL-8 R/B
OBJECT_ID      = 1975-112B
CENTER_NAME    = EARTH
REF_FRAME      = TEME
TIME_SYSTEM    = UTC
MEAN_ELEMENT_THEORY = SGP/SGP4

EPOCH          = 2026-03-16T21:01:57.192096
MEAN_MOTION    = 14.38208061
ECCENTRICITY   = .0014454
INCLINATION    = 74.0636
RA_OF_ASC_NODE = 5.6928
ARG_OF_PERICENTER = 95.9361
MEAN_ANOMALY   = 264.3441

EPHEMERIS_TYPE = 0
CLASSIFICATION_TYPE = U
NORAD_CAT_ID   = 8459
ELEMENT_SET_NO = 999
REV_AT_EPOCH   = 63290
BSTAR          = .79739E-4
MEAN_MOTION_DOT = .216E-5
MEAN_MOTION_DDOT = 0

CCSDS_OMM_VERS = 2.0
CREATION_DATE  = 
ORIGINATOR     = 

OBJECT_NAME    = SL-3 R/B
OBJECT_ID      = 1977-057B
CENTER_NAME    = EARTH
REF_FRAME      = TEME
TIME_SYSTEM    = UTC
MEAN_ELEMENT_THEORY = SGP/SGP4

EPOCH          = 2026-03-16T20:10:25.744800
MEAN_MOTION    = 15.45707685
ECCENTRICITY   = .0006149
INCLINATION    = 97.5774
RA_OF_ASC_NODE = 248.0780
ARG_OF_PERICENTER = 254.0805
MEAN_ANOMALY   = 105.9766

EPHEMERIS_TYPE = 0
CLASSIFICATION_TYPE = U
NORAD_CAT_ID   = 10114
ELEMENT_SET_NO = 999
REV_AT_EPOCH   = 66943
BSTAR          = .24824E-3
MEAN_MOTION_DOT = .11905E-3
MEAN_MOTION_DDOT = 0

CCSDS_OMM_VERS = 2.0
CREATION_DATE  = 
ORIGINATOR     = 

OBJECT_NAME    = SEASAT 1
OBJECT_ID      = 1978-064A
CENTER_NAME    = EARTH
REF_FRAME      = TEME
TIME_SYSTEM    = UTC
MEAN_ELEMENT_THEORY = SGP/SGP4

EPOCH          = 2026-03-16T19:52:49.870272
MEAN_MOTION    = 14.46166149
ECCENTRICITY   = .0002413
INCLINATION    = 108.0095
RA_OF_ASC_NODE = 140.4792
ARG_OF_PERICENTER = 282.9391
MEAN_ANOMALY   = 77.1485

EPHEMERIS_TYPE = 0
CLASSIFICATION_TYPE = U
NORAD_CAT_ID   = 10967
ELEMENT_SET_NO = 999
REV_AT_EPOCH   = 50754
BSTAR          = .9669E-4
MEAN_MOTION_DOT = .208E-5
MEAN_MOTION_DDOT = 0

CCSDS_OMM_VERS = 2.0
CREATION_DATE  = 
ORIGINATOR     = 

OBJECT_NAME    = SL-14 R/B
OBJECT_ID      = 1979-011B
CENTER_NAME    = EARTH
REF_FRAME      = TEME
TIME_SYSTEM    = UTC
MEAN_ELEMENT_THEORY = SGP/SGP4

EPOCH          = 2026-03-16T18:09:59.774976
MEAN_MOTION    = 14.91917112
ECCENTRICITY   = .0016994
INCLINATION    = 82.5203
RA_OF_ASC_NODE = 89.8625
ARG_OF_PERICENTER = 38.6066
MEAN_ANOMALY   = 321.6365

EPHEMERIS_TYPE = 0
CLASSIFICATION_TYPE = U
NORAD_CAT_ID   = 11267
ELEMENT_SET_NO = 999
REV_AT_EPOCH   = 52983
BSTAR          = .56438E-4
MEAN_MOTION_DOT = .598E-5
MEAN_MOTION_DDOT = 0

CCSDS_OMM_VERS = 2.0
CREATION_DATE  = 
ORIGINATOR     = 

OBJECT_NAME    = SL-8 R/B
OBJECT_ID      = 1979-089B
CENTER_NAME    = EARTH
REF_FRAME      = TEME
TIME_SYSTEM    = UTC
MEAN_ELEMENT_THEORY = SGP/SGP4

EPOCH          = 2026-03-16T18:01:08.618880
MEAN_MOTION    = 14.42355741
ECCENTRICITY   = .0017066
INCLINATION    = 74.0669
RA_OF_ASC_NODE = 77.9710
ARG_OF_PERICENTER = 249.9068
MEAN_ANOMALY   = 110.0252

EPHEMERIS_TYPE = 0
CLASSIFICATION_TYPE = U
NORAD_CAT_ID   = 11574
ELEMENT_SET_NO = 999
REV_AT_EPOCH   = 43712
BSTAR          = .98164E-4
MEAN_MOTION_DOT = .298E-5
MEAN_MOTION_DDOT = 0

CCSDS_OMM_VERS = 2.0
CREATION_DATE  = 
ORIGINATOR     = 

OBJECT_NAME    = SL-14 R/B
OBJECT_ID      = 1980-005B
CENTER_NAME    = EARTH
REF_FRAME      = TEME
TIME_SYSTEM    = UTC
MEAN_ELEMENT_THEORY = SGP/SGP4

EPOCH          = 2026-03-16T13:45:31.141440
MEAN_MOTION    = 14.90938297
ECCENTRICITY   = .0016727
INCLINATION    = 82.5133
RA_OF_ASC_NODE = 300.7062
ARG_OF_PERICENTER = 136.4495
MEAN_ANOMALY   = 223.8048

EPHEMERIS_TYPE = 0
CLASSIFICATION_TYPE = U
NORAD_CAT_ID   = 11672
ELEMENT_SET_NO = 999
REV_AT_EPOCH   = 47751
BSTAR          = .48052E-4
MEAN_MOTION_DOT = .501E-5
MEAN_MOTION_DDOT = 0

CCSDS_OMM_VERS = 2.0
CREATION_DATE  = 
ORIGINATOR     = 

OBJECT_NAME    = SL-8 R/B
OBJECT_ID      = 1981-003B
CENTER_NAME    = EARTH
REF_FRAME      = TEME
TIME_SYSTEM    = UTC
MEAN_ELEMENT_THEORY = SGP/SGP4

EPOCH          = 2026-03-16T19:42:50.645664
MEAN_MOTION    = 15.11284694
ECCENTRICITY   = .0261491
INCLINATION    = 82.9370
RA_OF_ASC_NODE = 283.4289
ARG_OF_PERICENTER = 153.7912
MEAN_ANOMALY   = 207.6836

EPHEMERIS_TYPE = 0
CLASSIFICATION_TYPE = U
NORAD_CAT_ID   = 12139
ELEMENT_SET_NO = 999
REV_AT_EPOCH   = 31575
BSTAR          = .5219E-3
MEAN_MOTION_DOT = .20508E-3
MEAN_MOTION_DDOT = 0

CCSDS_OMM_VERS = 2.0
CREATION_DATE  = 
ORIGINATOR     = 

OBJECT_NAME    = SL-3 R/B
OBJECT_ID      = 1981-046B
CENTER_NAME    = EARTH
REF_FRAME      = TEME
TIME_SYSTEM    = UTC
MEAN_ELEMENT_THEORY = SGP/SGP4

EPOCH          = 2026-03-16T19:00:55.469088
MEAN_MOTION    = 15.42182295
ECCENTRICITY   = .001898
INCLINATION    = 81.2286
RA_OF_ASC_NODE = 281.2139
ARG_OF_PERICENTER = 357.6592
MEAN_ANOMALY   = 2.4559

EPHEMERIS_TYPE = 0
CLASSIFICATION_TYPE = U
NORAD_CAT_ID   = 12465
ELEMENT_SET_NO = 999
REV_AT_EPOCH   = 43952
BSTAR          = .23984E-3
MEAN_MOTION_DOT = .10382E-3
MEAN_MOTION_DDOT = 0

CCSDS_OMM_VERS = 2.0
CREATION_DATE  = 
ORIGINATOR     = 

OBJECT_NAME    = SL-3 R/B
OBJECT_ID      = 1981-103B
CENTER_NAME    = EARTH
REF_FRAME      = TEME
TIME_SYSTEM    = UTC
MEAN_ELEMENT_THEORY = SGP/SGP4

EPOCH          = 2026-03-16T19:25:40.996992
MEAN_MOTION    = 15.21468619
ECCENTRICITY   = .0012453
INCLINATION    = 81.1597
RA_OF_ASC_NODE = 205.0802
ARG_OF_PERICENTER = 261.1253
MEAN_ANOMALY   = 98.8569

EPHEMERIS_TYPE = 0
CLASSIFICATION_TYPE = U
NORAD_CAT_ID   = 12904
ELEMENT_SET_NO = 999
REV_AT_EPOCH   = 97431
BSTAR          = .21023E-3
MEAN_MOTION_DOT = .4759E-4
MEAN_MOTION_DDOT = 0

CCSDS_OMM_VERS = 2.0
CREATION_DATE  = 
ORIGINATOR     = 

OBJECT_NAME    = SL-3 R/B
OBJECT_ID      = 1982-013B
CENTER_NAME    = EARTH
REF_FRAME      = TEME
TIME_SYSTEM    = UTC
MEAN_ELEMENT_THEORY = SGP/SGP4

EPOCH          = 2026-03-16T19:33:05.471424
MEAN_MOTION    = 15.22089215
ECCENTRICITY   = .002304
INCLINATION    = 81.1761
RA_OF_ASC_NODE = 152.4208
ARG_OF_PERICENTER = 153.7158
MEAN_ANOMALY   = 206.5249

EPHEMERIS_TYPE = 0
CLASSIFICATION_TYPE = U
NORAD_CAT_ID   = 13068
ELEMENT_SET_NO = 999
REV_AT_EPOCH   = 40543
BSTAR          = .17956E-3
MEAN_MOTION_DOT = .4165E-4
MEAN_MOTION_DDOT = 0

CCSDS_OMM_VERS = 2.0
CREATION_DATE  = 
ORIGINATOR     = 

OBJECT_NAME    = SL-3 R/B
OBJECT_ID      = 1982-039B
CENTER_NAME    = EARTH
REF_FRAME      = TEME
TIME_SYSTEM    = UTC
MEAN_ELEMENT_THEORY = SGP/SGP4

EPOCH          = 2026-03-16T19:30:41.467680
MEAN_MOTION    = 15.10124124
ECCENTRICITY   = .0029408
INCLINATION    = 81.1578
RA_OF_ASC_NODE = 207.7492
ARG_OF_PERICENTER = 301.1422
MEAN_ANOMALY   = 58.6919

EPHEMERIS_TYPE = 0
CLASSIFICATION_TYPE = U
NORAD_CAT_ID   = 13154
ELEMENT_SET_NO = 999
REV_AT_EPOCH   = 38271
BSTAR          = .14231E-3
MEAN_MOTION_DOT = .2366E-4
MEAN_MOTION_DDOT = 0

